{
  "type": "FeatureCollection",
  "name": "japan-overview-schematic",
  "metadata": {
    "coordinateSystem": "EPSG:4326",
    "source": "Simplified offline schematic outline for UI rendering",
    "officialBoundary": false,
    "disclaimer": "Not an official JMA administrative or forecast-area boundary."
  },
  "features": [
    {
      "type": "Feature",
      "properties": { "code": "JP-HKD", "name": "北海道", "officialBoundary": false },
      "geometry": { "type": "Polygon", "coordinates": [[[140.7, 45.5], [141.8, 45.4], [145.8, 44.2], [145.6, 42.1], [143.5, 41.3], [140.3, 41.5], [139.5, 43.0], [140.7, 45.5]]] }
    },
    {
      "type": "Feature",
      "properties": { "code": "JP-HNS", "name": "本州", "officialBoundary": false },
      "geometry": { "type": "Polygon", "coordinates": [[[130.7, 34.1], [132.0, 35.0], [134.0, 35.1], [136.0, 35.5], [138.0, 36.3], [140.0, 37.8], [141.9, 40.2], [141.8, 41.6], [139.8, 40.8], [138.4, 39.5], [136.8, 38.9], [134.8, 37.9], [133.4, 36.9], [131.5, 36.0], [130.7, 34.1]]] }
    },
    {
      "type": "Feature",
      "properties": { "code": "JP-SHK", "name": "四国", "officialBoundary": false },
      "geometry": { "type": "Polygon", "coordinates": [[[132.0, 33.6], [133.2, 34.3], [134.7, 34.2], [134.6, 33.4], [133.1, 32.9], [132.0, 33.6]]] }
    },
    {
      "type": "Feature",
      "properties": { "code": "JP-KYS", "name": "九州", "officialBoundary": false },
      "geometry": { "type": "Polygon", "coordinates": [[[129.5, 33.9], [131.0, 33.8], [131.7, 32.9], [130.9, 31.2], [129.1, 31.0], [128.5, 32.2], [129.5, 33.9]]] }
    },
    {
      "type": "Feature",
      "properties": { "code": "JP-RYK", "name": "南西諸島", "officialBoundary": false },
      "geometry": { "type": "Polygon", "coordinates": [[[127.0, 26.0], [128.3, 26.4], [129.2, 26.0], [128.1, 25.5], [127.0, 26.0]]] }
    }
  ]
}
