{"type":"FeatureCollection","metadata":{"source":"JMA GIS","sourceUrl":"https://www.data.jma.go.jp/developer/gis.html","sourceVersion":"20240520","acquiredAt":"2026-08-24","coordinateSystem":"JGD2011 (原始 ZIP 无 .prj，按经纬度使用)","officialBoundary":true,"sourceLayer":"津波予報区","geometryType":"PolyLine","simplificationToleranceDegrees":0.08,"sourceArchive":"20240520_AreaTsunami_GIS.zip","derivedFrom":"jma-tsunami-forecast-lines-overview.geojson","detailLevel":"low","duplicatePointsRemoved":true},"features":[{"type":"Feature","properties":{"forecastAreaCode":"120","name":"オホーツク海沿岸","officialBoundary":true},"geometry":{"type":"MultiLineString","coordinates":[[[144.2926626,44.0194484],[144.2926626,44.0194484]],[[143.3857053,44.3432599],[143.3857053,44.3432599]],[[141.9366609,45.5229495],[142.5341414,45.0285769],[142.9902089,44.5602964],[144.2550114,44.0384186],[144.7952892,43.9313925],[145.3206933,44.3405278],[145.3376442,44.3413125]]]}},{"type":"Feature","properties":{"forecastAreaCode":"390","name":"愛知県外海","officialBoundary":true},"geometry":{"type":"MultiLineString","coordinates":[[[137.4849639,34.6741051],[137.01659,34.5791122]]]}},{"type":"Feature","properties":{"forecastAreaCode":"600","name":"愛媛県宇和海沿岸","officialBoundary":true},"geometry":{"type":"MultiLineString","coordinates":[[[132.6555329,32.9252013],[132.5270239,32.9328251],[132.5028211,32.9559545],[132.484685,33.0109843],[132.4029893,33.0398184],[132.4628104,33.0933456],[132.4316222,33.169632],[132.4581439,33.1843303],[132.5395813,33.2269749],[132.5251665,33.3045342],[132.4193767,33.3830524],[132.3917608,33.454973],[132.3169461,33.4516853],[132.0141316,33.3438443]],[[132.4053703,32.946165],[132.4053703,32.946165]],[[132.4551828,32.9521038],[132.4551828,32.9521038]],[[132.332469,33.1096081],[132.332469,33.1096081]],[[132.4221661,33.1138003],[132.4221661,33.1138003]],[[132.3389023,33.1615222],[132.3389023,33.1615222]],[[132.3089526,33.1638516],[132.3089526,33.1638516]],[[132.2633918,33.1846736],[132.2633918,33.1846736]],[[132.4914808,33.2201548],[132.4914808,33.2201548]],[[132.3750591,33.2216285],[132.3750591,33.2216285]],[[132.5177509,33.2411581],[132.5177509,33.2411581]],[[132.3436741,33.3808881],[132.3436741,33.3808881]],[[132.3419973,33.3960371],[132.3419973,33.3960371]],[[132.368455,33.4404853],[132.368455,33.4404853]]]}},{"type":"Feature","properties":{"forecastAreaCode":"601","name":"愛媛県瀬戸内海沿岸","officialBoundary":true},"geometry":{"type":"MultiLineString","coordinates":[[[132.0141316,33.3438443],[132.1728097,33.4462106],[132.4795758,33.6188936],[132.699629,33.8624436],[132.7655996,33.9985522],[132.9785899,34.1158571],[133.1189907,33.9244997],[133.2543341,33.9559196],[133.4111408,33.9906483],[133.5984952,34.0436309]],[[132.4848286,33.7387708],[132.4848286,33.7387708]],[[132.5339797,33.8527511],[132.5339797,33.8527511]],[[132.6912141,33.9265073],[132.6912141,33.9265073]],[[132.5497806,33.9382042],[132.5497806,33.9382042]],[[132.6617872,33.9738269],[132.6617872,33.9738269]],[[132.6895767,33.9774272],[132.6895767,33.9774272]],[[132.5125211,33.9903711],[132.5125211,33.9903711]],[[132.5617297,33.9941947],[132.5617297,33.9941947]],[[133.3672739,34.0078147],[133.3672739,34.0078147]],[[132.6456506,34.0182764],[132.6456506,34.0182764]],[[132.5961775,34.0314653],[132.5961775,34.0314653]],[[132.7102667,34.0725153],[132.7102667,34.0725153]],[[133.1812958,34.1119111],[133.1812958,34.1119111]],[[132.9936186,34.1220248],[132.9936186,34.1220248]],[[133.1913557,34.1233591],[133.1913557,34.1233591]],[[132.9818063,34.1289087],[132.9818063,34.1289087]],[[132.9978791,34.1586383],[132.9978791,34.1586383]],[[133.3595392,34.1740397],[133.3595392,34.1740397]],[[133.3093614,34.1838178],[133.3093614,34.1838178]],[[132.9051144,34.1942467],[132.9051144,34.1942467]],[[133.0883439,34.1948681],[133.0883439,34.1948681]],[[133.0370339,34.1952891],[133.0410392,34.1499573],[133.0370339,34.1952891]],[[132.8731796,34.1973684],[132.8731796,34.1973684]],[[133.272285,34.2000553],[133.272285,34.2000553]],[[132.9238464,34.2020694],[132.9238464,34.2020694]],[[133.1579125,34.2306747],[133.1579125,34.2306747]],[[133.2596653,34.2357656],[133.2596653,34.2357656]],[[133.1078152,34.2416667],[133.0641845,34.2353027],[133.1078152,34.2416667]],[[133.1637483,34.2463928],[133.1637483,34.2463928]],[[133.1931644,34.2572783],[133.1931644,34.2572783]],[[133.1525028,34.2804097],[133.1525028,34.2804097]],[[133.0507472,34.28522],[133.0499172,34.2852317]],[[133.1719053,34.2856161],[133.1719053,34.2856161]],[[133.2290469,34.2918089],[133.2290469,34.2918089]],[[133.0115231,34.2996762],[133.0115231,34.2996762]]]}},{"type":"Feature","properties":{"forecastAreaCode":"391","name":"伊勢・三河湾","officialBoundary":true},"geometry":{"type":"MultiLineString","coordinates":[[[137.01659,34.5791122],[137.2584655,34.7156739],[137.3310396,34.7805119],[137.2137446,34.8031094],[136.9838343,34.893261],[136.9380467,34.8208732],[136.8665348,34.8391663],[136.8494382,35.0109237],[136.8554796,35.0565876],[136.7969297,35.0124564],[136.5343646,34.7541872],[136.660448,34.5663043]],[[137.0083733,34.6856025],[137.0083733,34.6856025]],[[137.0076164,34.7091397],[137.0076164,34.7091397]],[[137.0409511,34.7324218],[137.0409511,34.7324218]],[[137.275,34.7397246],[137.275,34.7397246]],[[137.3188094,34.7484917],[137.3188094,34.7484917]],[[137.2986284,34.8099037],[137.2986284,34.8099037]],[[136.9571363,34.8276014],[136.9571363,34.8276014]],[[136.8058315,34.8776422],[136.8058315,34.8776422]],[[136.6588694,34.951533],[136.6588694,34.951533]],[[136.8220546,34.9609392],[136.8220546,34.9609392]],[[136.6729982,34.997938],[136.6729982,34.997938]],[[136.7180919,35.0032596],[136.7180919,35.0032596]],[[136.8216825,35.0080358],[136.8216825,35.0080358]],[[136.7555598,35.0101846],[136.7555598,35.0101846]],[[136.8309026,35.049372],[136.8309026,35.049372]],[[136.8486698,35.0560453],[136.8486698,35.0560453]],[[136.8781573,35.0719249],[136.8781573,35.0719249]]]}},{"type":"Feature","properties":{"forecastAreaCode":"320","name":"伊豆諸島","officialBoundary":true},"geometry":{"type":"MultiLineString","coordinates":[[[140.3039608,30.4957617],[140.3039608,30.4957617]],[[139.7584369,32.4734731],[139.7584369,32.4734731]],[[139.6858558,33.1366208],[139.6858558,33.1366208]],[[139.7600139,33.1589774],[139.7536419,33.1050494],[139.7600139,33.1589774]],[[139.6036233,33.9011403],[139.6036233,33.9011403]],[[139.5323774,34.1246333],[139.5323774,34.1246333]],[[139.1433114,34.2437363],[139.1433114,34.2437363]],[[139.212873,34.3369316],[139.212873,34.3369316]],[[139.2792995,34.4313899],[139.2792995,34.4313899]],[[139.2865069,34.4783533],[139.2865069,34.4783533]],[[139.2805787,34.5333333],[139.2805787,34.5333333]],[[139.3610914,34.7990729],[139.3610914,34.7990729]]]}},{"type":"Feature","properties":{"forecastAreaCode":"731","name":"壱岐・対馬","officialBoundary":true},"geometry":{"type":"MultiLineString","coordinates":[[[129.6481756,33.7306636],[129.6481756,33.7306636]],[[129.6366276,33.7453572],[129.6366276,33.7453572]],[[129.7042618,33.8635193],[129.7344508,33.7393038],[129.6779151,33.7778137],[129.7042618,33.8635193]],[[129.6860359,33.8710122],[129.6860359,33.8710122]],[[129.3831257,34.3041801],[129.3831257,34.3041801]],[[129.3951591,34.3235339],[129.3951591,34.3235339]],[[129.2054603,34.3315016],[129.2946408,34.3202067],[129.3393345,34.2996174],[129.2960344,34.1617923],[129.2147736,34.1128233],[129.2054603,34.3315016]],[[129.2974951,34.3371217],[129.2974951,34.3371217]],[[129.3968667,34.3599055],[129.3968667,34.3599055]],[[129.4124708,34.3632611],[129.4124708,34.3632611]],[[129.4494565,34.7066036],[129.4911517,34.6451126],[129.4735303,34.5555344],[129.3794667,34.4118208],[129.3641815,34.3385153],[129.3540693,34.318438],[129.2997825,34.3496289],[129.2877582,34.3566994],[129.272004,34.4157577],[129.2739201,34.4689851],[129.3835926,34.6496193],[129.4494565,34.7066036]]]}},{"type":"Feature","properties":{"forecastAreaCode":"300","name":"茨城県","officialBoundary":true},"geometry":{"type":"MultiLineString","coordinates":[[[140.5866219,36.2913373],[140.5866219,36.2913373]],[[140.6371205,36.4028044],[140.6371205,36.4028044]],[[140.7934964,36.8594561],[140.6282101,36.4835198],[140.6273579,36.3771337],[140.6848966,35.964434],[140.7066766,35.9239914],[140.8519744,35.7446671]]]}},{"type":"Feature","properties":{"forecastAreaCode":"551","name":"隠岐","officialBoundary":true},"geometry":{"type":"MultiLineString","coordinates":[[[133.0543189,36.0021669],[133.0543189,36.0021669]],[[133.0038269,36.0329253],[133.0038269,36.0329253]],[[133.1642836,36.1140328],[133.1642836,36.1140328]],[[133.1125567,36.1201206],[133.0641789,36.1008563],[133.1125567,36.1201206]],[[133.069205,36.1427361],[132.9764511,36.0838008],[133.069205,36.1427361]],[[133.2790497,36.3488878],[133.3420123,36.1706629],[133.1822536,36.2121933],[133.2246036,36.3286486],[133.2790497,36.3488878]]]}},{"type":"Feature","properties":{"forecastAreaCode":"772","name":"奄美群島・トカラ列島","officialBoundary":true},"geometry":{"type":"MultiLineString","coordinates":[[[128.4319975,27.0681108],[128.4319975,27.0681108]],[[128.6940342,27.4408975],[128.6940342,27.4408975]],[[128.9066867,27.8937619],[128.9831808,27.6687014],[128.9066867,27.8937619]],[[129.2139322,28.0549753],[129.2139322,28.0549753]],[[129.1725172,28.0688633],[129.1725172,28.0688633]],[[129.1646694,28.1228875],[129.1646694,28.1228875]],[[129.209405,28.2012269],[129.2748753,28.1511167],[129.2951075,28.1075267],[129.2919078,28.0909844],[129.209405,28.2012269]],[[129.1843939,28.3057806],[129.1843939,28.3057806]],[[130.0191481,28.3785225],[130.0191481,28.3785225]],[[129.6900408,28.5299881],[129.5410556,28.3082939],[129.3380035,28.170183],[129.2941325,28.2230992],[129.1519653,28.2364919],[129.2656497,28.2882097],[129.3890552,28.3735626],[129.4993505,28.3824497],[129.6205383,28.4508881],[129.6458333,28.5012464],[129.6900408,28.5299881]],[[128.9943292,28.8071756],[128.9943292,28.8071756]],[[129.2012958,29.1590364],[129.2012958,29.1590364]],[[129.3270283,29.2288919],[129.3270283,29.2288919]],[[129.5953297,29.4770761],[129.5953297,29.4770761]],[[129.7401089,29.6718233],[129.7401089,29.6718233]],[[129.5345245,29.69691],[129.5345245,29.69691]],[[129.8517619,29.8837372],[129.8517619,29.8837372]],[[129.5368489,29.91638],[129.5368489,29.91638]],[[129.9167261,30.0073928],[129.9167261,30.0073928]]]}},{"type":"Feature","properties":{"forecastAreaCode":"560","name":"岡山県","officialBoundary":true},"geometry":{"type":"MultiLineString","coordinates":[[[133.5382414,34.3097256],[133.5382414,34.3097256]],[[133.4982742,34.3506261],[133.4982742,34.3506261]],[[133.5166667,34.3522754],[133.5166667,34.3522754]],[[133.5871356,34.3637283],[133.5871356,34.3637283]],[[133.5426384,34.4020226],[133.5426384,34.4020226]],[[133.9200983,34.4185015],[133.9252778,34.4188196]],[[133.5247942,34.4164231],[133.5247942,34.4164231]],[[133.7611653,34.4312928],[133.7611653,34.4312928]],[[133.5121532,34.4352568],[133.5121532,34.4352568]],[[134.0075581,34.4980358],[134.0238444,34.5063331]],[[133.6844163,34.5042667],[133.6844163,34.5042667]],[[134.1041786,34.5677239],[134.1041786,34.5677239]],[[134.1908517,34.6023006],[134.1908517,34.6023006]],[[134.1989833,34.6172064],[134.1989833,34.6172064]],[[134.2421375,34.6783236],[134.2421375,34.6783236]],[[134.2917844,34.6854528],[134.2917844,34.6854528]],[[134.2569333,34.6873522],[134.2569333,34.6873522]],[[134.2590061,34.7070267],[134.2590061,34.7070267]],[[134.2647017,34.7139981],[134.2647017,34.7139981]],[[134.3217294,34.7219461],[134.197423,34.7077738],[134.1872075,34.63133],[134.0288167,34.5987926],[133.9648583,34.4950058],[133.7350399,34.4985744],[133.6594422,34.5208098],[133.489177,34.4409545],[133.4469085,34.4802677]],[[134.298345,34.7302017],[134.298345,34.7302017]]]}},{"type":"Feature","properties":{"forecastAreaCode":"800","name":"沖縄本島地方","officialBoundary":true},"geometry":{"type":"MultiLineString","coordinates":[[[127.9094935,26.171836],[127.9094935,26.171836]],[[127.6542298,26.1614282],[127.6542298,26.1614282]],[[127.2931044,26.1750606],[127.2931044,26.1750606]],[[127.2367692,26.1828114],[127.2367692,26.1828114]],[[127.2890444,26.1876233],[127.2890444,26.1876233]],[[127.6524628,26.225],[127.6524628,26.225]],[[127.2809153,26.2115061],[127.2809153,26.2115061]],[[127.3093608,26.2157636],[127.3093608,26.2157636]],[[127.4527531,26.2245844],[127.4527531,26.2245844]],[[127.3571672,26.2264686],[127.3571672,26.2264686]],[[127.2494269,26.2230528],[127.2494269,26.2230528]],[[127.9445575,26.2622443],[127.9445575,26.2622443]],[[127.3688856,26.2368525],[127.3688856,26.2368525]],[[127.3100589,26.25196],[127.3100589,26.25196]],[[127.5542119,26.2655886],[127.5542119,26.2655886]],[[127.9246552,26.323232],[127.9246552,26.323232]],[[127.9526919,26.3291237],[127.9526919,26.3291237]],[[127.9340772,26.3320533],[127.9340772,26.3320533]],[[127.8617795,26.3436009],[127.8617795,26.3436009]],[[127.9656828,26.3650854],[127.9656828,26.3650854]],[[127.9879928,26.385075],[127.9879928,26.385075]],[[127.9998924,26.40085],[127.9998924,26.40085]],[[126.8284528,26.3427789],[126.8284528,26.3427789]],[[126.8979608,26.3503411],[126.8979608,26.3503411]],[[127.1468544,26.3819853],[127.1468544,26.3819853]],[[126.776135,26.3913364],[126.7078247,26.3574119],[126.776135,26.3913364]],[[127.2312906,26.6020656],[127.2312906,26.6020656]],[[127.8665522,26.6539234],[127.8665522,26.6539234]],[[128.0200972,26.6806442],[128.0200972,26.6806442]],[[128.0166667,26.7144937],[128.0166667,26.7144937]],[[127.8078987,26.7391244],[127.8078987,26.7391244]],[[128.2577372,26.8755006],[128.1481234,26.6291272],[127.996055,26.5088672],[127.8804452,26.3784758],[127.849286,26.3015236],[127.657711,26.0813626],[127.6365048,26.1987071],[127.6850041,26.2423981],[127.8119472,26.464374],[127.8948664,26.6066023],[128.0079474,26.6299992],[128.2319833,26.7979886],[128.2577372,26.8755006]],[[127.9222036,26.9024947],[127.9222036,26.9024947]],[[127.93761,26.9556961],[127.93761,26.9556961]],[[127.9477933,26.9779764],[127.9477933,26.9779764]],[[127.9241983,27.0008197],[127.9241983,27.0008197]],[[128.0207547,27.0944983],[128.0207547,27.0944983]],[[128.2227133,27.8852825],[128.2227133,27.8852825]]]}},{"type":"Feature","properties":{"forecastAreaCode":"210","name":"岩手県","officialBoundary":true},"geometry":{"type":"MultiLineString","coordinates":[[[141.6826668,40.450294],[141.8765655,40.1438782],[141.9784383,39.8293767],[141.9670196,39.6902556],[142.0244751,39.6562681],[141.954742,39.4734374],[142.0053654,39.4104423],[141.8989694,39.3373449],[141.8899386,39.2476827],[141.8660558,39.1914982],[141.8600992,39.1039905],[141.7587724,39.0175854],[141.6964388,38.9699276],[141.6319042,38.9707081]]]}},{"type":"Feature","properties":{"forecastAreaCode":"802","name":"宮古島・八重山地方","officialBoundary":true},"geometry":{"type":"MultiLineString","coordinates":[[[123.7871194,24.0717492],[123.7871194,24.0717492]],[[123.9345031,24.2213875],[123.9345031,24.2213875]],[[123.9506197,24.2428192],[123.9506197,24.2428192]],[[124.0042413,24.2538644],[124.0042413,24.2538644]],[[124.1565456,24.3330934],[124.1565456,24.3330934]],[[124.0868714,24.3404878],[124.0868714,24.3404878]],[[123.9743875,24.3547972],[123.9743875,24.3547972]],[[123.7312514,24.3630133],[123.7312514,24.3630133]],[[123.7251022,24.3801239],[123.7251022,24.3801239]],[[124.1484361,24.462129],[124.1484361,24.462129]],[[123.781995,24.4373222],[123.9116233,24.3254383],[123.6616958,24.308345],[123.7429764,24.3935111],[123.781995,24.4373222]],[[123.8173628,24.4771542],[123.8173628,24.4771542]],[[122.9980424,24.4751213],[122.9980424,24.4751213]],[[124.3164688,24.6121199],[124.2011224,24.3542168],[124.0843844,24.4162115],[124.2230046,24.4554369],[124.3164688,24.6121199]],[[124.7107944,24.67735],[124.7107944,24.67735]],[[125.2418911,24.7316522],[125.2418911,24.7316522]],[[124.6950015,24.7619229],[124.6950015,24.7619229]],[[125.2660375,24.8040548],[125.2660375,24.8040548]],[[125.1400649,24.8445984],[125.1400649,24.8445984]],[[125.1632744,24.8654166],[125.1632744,24.8654166]],[[125.2670006,24.9148047],[125.2974231,24.7337608],[125.2551283,24.9101389],[125.2670006,24.9148047]],[[125.2399078,24.93827],[125.2399078,24.93827]],[[123.4764697,25.7518006],[123.4764697,25.7518006]]]}},{"type":"Feature","properties":{"forecastAreaCode":"760","name":"宮崎県","officialBoundary":true},"geometry":{"type":"MultiLineString","coordinates":[[[131.4106328,31.54226],[131.4106328,31.54226]],[[131.8183981,32.6742489],[131.8183981,32.6742489]],[[131.8857072,32.7458681],[131.7653675,32.642619],[131.7099748,32.5026116],[131.6745703,32.4541306],[131.4751823,31.9192683],[131.4687833,31.6863656],[131.3869612,31.5233219],[131.3093425,31.3907139],[131.1603008,31.4618608]]]}},{"type":"Feature","properties":{"forecastAreaCode":"220","name":"宮城県","officialBoundary":true},"geometry":{"type":"MultiLineString","coordinates":[[[141.0685822,38.2627831],[141.0685822,38.2627831]],[[141.4701186,38.2836396],[141.4701186,38.2836396]],[[141.41623,38.3122097],[141.41623,38.3122097]],[[141.0908247,38.3382664],[141.0908247,38.3382664]],[[141.5668574,38.3135526],[141.5668574,38.3135526]],[[141.1211287,38.3448531],[141.1211287,38.3448531]],[[141.1302545,38.3471433],[141.1302545,38.3471433]],[[141.15,38.3566232],[141.15,38.3566232]],[[141.275,38.3900803],[141.275,38.3900803]],[[141.5179153,38.4655802],[141.5179153,38.4655802]],[[141.6243027,38.8854066],[141.6243027,38.8854066]],[[141.6319042,38.9707081],[141.5750069,38.906178],[141.5616969,38.6914224],[141.52415,38.6091673],[141.5132425,38.5132499],[141.4750506,38.4198821],[141.5181123,38.3684978],[141.4494713,38.3152533],[141.4083953,38.4040043],[141.2734369,38.4199489],[141.0375998,38.3434746],[141.0287907,38.2831062],[140.9311708,37.8961974]]]}},{"type":"Feature","properties":{"forecastAreaCode":"740","name":"熊本県天草灘沿岸","officialBoundary":true},"geometry":{"type":"MultiLineString","coordinates":[[[129.9651894,32.1871408],[129.9651894,32.1871408]],[[130.0291916,32.1908194],[130.0291916,32.1908194]],[[130.078085,32.2016725],[130.078085,32.2016725]],[[130.1411941,32.2776499],[130.1411941,32.2776499]],[[130.1539961,32.3218385],[130.0899422,32.2267439],[129.990835,32.1968667],[130.0339576,32.2748514],[129.9942208,32.3065381],[130.0376983,32.5360251],[130.1972464,32.5035101]],[[130.1178978,32.5523092],[130.1178978,32.5523092]]]}},{"type":"Feature","properties":{"forecastAreaCode":"570","name":"広島県","officialBoundary":true},"geometry":{"type":"MultiLineString","coordinates":[[[132.4939451,34.0455464],[132.4939451,34.0455464]],[[132.5332908,34.0742292],[132.5332908,34.0742292]],[[132.5494433,34.0794861],[132.5494433,34.0794861]],[[132.7894867,34.1225108],[132.7894867,34.1225108]],[[132.77501,34.1555758],[132.77501,34.1555758]],[[132.4392639,34.1605003],[132.4392639,34.1605003]],[[132.7951197,34.16786],[132.7951197,34.16786]],[[132.5780067,34.1682486],[132.5780067,34.1682486]],[[132.3854833,34.1774958],[132.3854833,34.1774958]],[[132.8281852,34.1869346],[132.8281852,34.1869346]],[[132.8199939,34.1949181],[132.8199939,34.1949181]],[[132.2964669,34.1993261],[132.2964669,34.1993261]],[[132.5348583,34.2004626],[132.5701356,34.1155131],[132.5348583,34.2004626]],[[132.675,34.2022959],[132.675,34.2022959]],[[132.7119958,34.2038075],[132.7119958,34.2038075]],[[132.8695903,34.2714081],[132.8695903,34.2714081]],[[132.3705967,34.2798422],[132.3705967,34.2798422]],[[132.8060886,34.2814673],[132.8060886,34.2814673]],[[132.9309397,34.2845964],[132.8874675,34.2623028],[132.9309397,34.2845964]],[[133.0499172,34.2852317],[133.0507472,34.28522]],[[132.8836519,34.2900578],[132.8836519,34.2900578]],[[132.4796919,34.2962685],[132.4375817,34.1959506],[132.4331046,34.2503054],[132.4796919,34.2962685]],[[132.9156725,34.3001947],[132.9156725,34.3001947]],[[132.3336441,34.3112663],[132.3336441,34.3112663]],[[132.9891023,34.3159118],[132.9891023,34.3159118]],[[133.1334404,34.3168918],[133.1334404,34.3168918]],[[132.9371517,34.3245327],[132.9371517,34.3245327]],[[132.4408882,34.3258917],[132.4408882,34.3258917]],[[133.0786804,34.3330899],[133.0786804,34.3330899]],[[132.4814645,34.3469688],[132.4814645,34.3469688]],[[133.4364494,34.3514144],[133.4364494,34.3514144]],[[132.4600156,34.3517218],[132.4600156,34.3517218]],[[133.2860873,34.3577349],[133.2860873,34.3577349]],[[133.1517119,34.3585906],[133.1517119,34.3585906]],[[133.1173211,34.3601158],[133.1173211,34.3601158]],[[133.1073503,34.3683528],[133.1073503,34.3683528]],[[133.1455846,34.3708652],[133.1455846,34.3708652]],[[133.3190233,34.3725511],[133.3190233,34.3725511]],[[133.2609591,34.3844336],[133.2609591,34.3844336]],[[133.3992614,34.3885567],[133.3992614,34.3885567]],[[133.1623189,34.3915045],[133.1623189,34.3915045]],[[133.2154806,34.409089],[133.2154806,34.409089]],[[133.2640708,34.430389],[133.2640708,34.430389]],[[133.4469085,34.4802677],[133.2904736,34.3833406],[133.127469,34.3825569],[132.8342616,34.3161202],[132.684387,34.2103171],[132.5145718,34.2569457],[132.4756068,34.3670936],[132.3389231,34.3419569],[132.2455952,34.2106726]]]}},{"type":"Feature","properties":{"forecastAreaCode":"590","name":"香川県","officialBoundary":true},"geometry":{"type":"MultiLineString","coordinates":[[[133.5984952,34.0436309],[133.6740019,34.2219909],[133.7721415,34.305976],[133.8576181,34.3458044],[134.0294056,34.3485182],[134.1223456,34.3606704],[134.2110274,34.3470959],[134.3432151,34.2523334],[134.4402067,34.2078539]],[[133.5271655,34.1366061],[133.5271655,34.1366061]],[[133.6748469,34.2744286],[133.6748469,34.2744286]],[[133.6267044,34.2870169],[133.6267044,34.2870169]],[[133.66433,34.3255392],[133.66433,34.3255392]],[[133.621325,34.3543919],[133.621325,34.3543919]],[[133.7796697,34.3655027],[133.7796697,34.3655027]],[[133.6494624,34.3832841],[133.6494624,34.3832841]],[[133.8204777,34.3953692],[133.8204777,34.3953692]],[[133.7104969,34.3990967],[133.7104969,34.3990967]],[[133.7776628,34.4010031],[133.7776628,34.4010031]],[[134.0538383,34.4092232],[134.0538383,34.4092232]],[[134.1053995,34.4146045],[134.1053995,34.4146045]],[[133.6717495,34.4108221],[133.6717495,34.4108221]],[[133.9252778,34.4188196],[133.9200983,34.4185015]],[[133.8046004,34.4273651],[133.8046004,34.4273651]],[[134.0626041,34.4332239],[134.0626041,34.4332239]],[[134.0136336,34.4422908],[134.0136336,34.4422908]],[[133.9654711,34.4618364],[133.9654711,34.4618364]],[[134.0043519,34.47318],[134.0043519,34.47318]],[[133.9537025,34.4778194],[133.9537025,34.4778194]],[[133.969815,34.4779853],[133.969815,34.4779853]],[[134.127075,34.4822206],[134.127075,34.4822206]],[[134.0855403,34.4994447],[134.0855403,34.4994447]],[[134.0238444,34.5063331],[134.0075581,34.4980358]],[[134.3468221,34.5647949],[134.3166611,34.4596425],[134.2283864,34.4806497],[134.1868386,34.5158222],[134.3468221,34.5647949]]]}},{"type":"Feature","properties":{"forecastAreaCode":"720","name":"佐賀県北部","officialBoundary":true},"geometry":{"type":"MultiLineString","coordinates":[[[129.7908143,33.3403991],[129.8705882,33.4050146],[129.8350003,33.4423019],[129.8569711,33.5193369],[129.969284,33.5113463],[130.0390263,33.4700145]],[[129.9916667,33.4803445],[129.9916667,33.4803445]],[[129.9737562,33.5435664],[129.9737562,33.5435664]],[[129.8818924,33.5677544],[129.8818924,33.5677544]],[[129.7606586,33.5826703],[129.7606586,33.5826703]],[[129.8456328,33.5920122],[129.8456328,33.5920122]],[[129.8983944,33.6041624],[129.8983944,33.6041624]],[[129.8629544,33.6176742],[129.8629544,33.6176742]]]}},{"type":"Feature","properties":{"forecastAreaCode":"341","name":"佐渡","officialBoundary":true},"geometry":{"type":"MultiLineString","coordinates":[[[138.5029609,38.3322233],[138.5001278,37.9203639],[138.2846252,37.919459],[138.2384224,38.0279531],[138.5029609,38.3322233]]]}},{"type":"Feature","properties":{"forecastAreaCode":"400","name":"三重県南部","officialBoundary":true},"geometry":{"type":"MultiLineString","coordinates":[[[136.8178681,34.2931408],[136.8178681,34.2931408]],[[136.8201784,34.3114464],[136.8201784,34.3114464]],[[136.8763293,34.3677956],[136.8763293,34.3677956]],[[136.9040844,34.5031336],[136.9040844,34.5031336]],[[136.8986202,34.5386881],[136.8986202,34.5386881]],[[136.9165073,34.5443853],[136.9165073,34.5443853]],[[136.9815724,34.5522168],[136.9815724,34.5522168]],[[136.660448,34.5663043],[136.8848052,34.4499024],[136.857756,34.3637493],[136.8777712,34.335258],[136.8272935,34.2722389],[136.8268723,34.3009629],[136.7780376,34.3148587],[136.7266354,34.3432889],[136.6501104,34.2924343],[136.5482274,34.2498654],[136.5048304,34.2431118],[136.4526271,34.2196416],[136.3361351,34.1825362],[136.2670322,34.0816027],[136.2526655,34.0617558],[136.2515551,33.9851894],[136.20094,33.9448619],[136.1304733,33.8850668],[136.01189,33.7233007]]]}},{"type":"Feature","properties":{"forecastAreaCode":"240","name":"山形県","officialBoundary":true},"geometry":{"type":"MultiLineString","coordinates":[[[139.5478108,38.5529477],[139.8123986,38.9509801],[139.8695899,39.1182582]],[[139.7920178,38.9416667],[139.7920178,38.9416667]],[[139.8210417,38.966044],[139.8210417,38.966044]],[[139.5503918,39.2085505],[139.5503918,39.2085505]]]}},{"type":"Feature","properties":{"forecastAreaCode":"701","name":"山口県瀬戸内海沿岸","officialBoundary":true},"geometry":{"type":"MultiLineString","coordinates":[[[132.1509148,33.7638911],[132.1509148,33.7638911]],[[131.9706458,33.7979936],[131.9706458,33.7979936]],[[132.4010031,33.8145867],[132.4010031,33.8145867]],[[132.2588672,33.8162525],[132.2588672,33.8162525]],[[132.2093958,33.8172933],[132.2093958,33.8172933]],[[132.1192883,33.8237561],[132.1192883,33.8237561]],[[132.3593422,33.8586228],[132.3593422,33.8586228]],[[132.0714097,33.8584092],[132.0714097,33.8584092]],[[132.0171519,33.8713915],[132.0171519,33.8713915]],[[132.0647255,33.8836531],[132.0647255,33.8836531]],[[132.0439028,33.9008667],[132.0439028,33.9008667]],[[132.4547075,33.9270222],[132.4547075,33.9270222]],[[132.1664618,33.9473326],[132.1664618,33.9473326]],[[132.3477276,33.9593256],[132.3477276,33.9593256]],[[132.4708011,33.9665689],[132.4708011,33.9665689]],[[131.6968714,33.9498386],[131.6968714,33.9498386]],[[132.2339892,33.96763],[132.4020192,33.9286753],[132.2896683,33.8907644],[132.1726799,33.9236656],[132.2339892,33.96763]],[[132.3487294,33.973795],[132.3487294,33.973795]],[[130.9176577,33.9376257],[130.9116351,33.9112536]],[[131.7599206,33.9835045],[131.7599206,33.9835045]],[[131.8580856,33.990052],[131.847385,33.9499874],[131.8580856,33.990052]],[[132.331075,34.003635],[132.331075,34.003635]],[[132.2637136,34.0097986],[132.2637136,34.0097986]],[[132.414975,34.0303461],[132.414975,34.0303461]],[[132.3916667,34.0427109],[132.3916667,34.0427109]],[[131.5861779,34.0235192],[131.5861779,34.0235192]],[[131.7091475,34.0351767],[131.7091475,34.0351767]],[[131.7729772,34.0503197],[131.7729772,34.0503197]],[[132.2455952,34.2106726],[132.1187805,33.9530984],[132.0252626,33.9017351],[131.8169236,33.9821205],[131.7372335,34.0456886],[131.509083,34.0036115],[131.3956324,33.9848773],[131.3780478,34.0080774],[131.2153258,33.9367203],[131.1610367,33.9738681],[130.9967577,33.989764],[130.9180023,33.9384669]]]}},{"type":"Feature","properties":{"forecastAreaCode":"700","name":"山口県日本海沿岸","officialBoundary":true},"geometry":{"type":"MultiLineString","coordinates":[[[130.9116351,33.9112536],[130.9176577,33.9376257]],[[130.9180023,33.9384669],[130.8958869,34.1531389],[130.9278772,34.3413234],[131.0198769,34.4110006],[131.3063464,34.3828261],[131.462012,34.4859706],[131.6037583,34.6620161],[131.6906217,34.681045]],[[130.8645067,33.9809075],[130.8645067,33.9809075]],[[130.8952429,33.9931073],[130.8952429,33.9931073]],[[130.7788011,34.1152408],[130.7788011,34.1152408]],[[130.9741766,34.3638256],[130.9741766,34.3638256]],[[130.8673294,34.3737063],[130.8673294,34.3737063]],[[131.2462597,34.438299],[131.2462597,34.438299]],[[131.412478,34.5130308],[131.412478,34.5130308]],[[131.2776197,34.5179897],[131.2776197,34.5179897]],[[131.3894528,34.5237082],[131.3894528,34.5237082]],[[131.1307031,34.7986542],[131.1307031,34.7986542]]]}},{"type":"Feature","properties":{"forecastAreaCode":"773","name":"鹿児島県西部","officialBoundary":true},"geometry":{"type":"MultiLineString","coordinates":[[[129.4342649,30.8491519],[129.4342649,30.8491519]],[[130.661323,30.9944995],[130.7558642,31.4253342],[130.7172087,31.6027247],[130.7307892,31.7244151],[130.5345894,31.5053974],[130.5254704,31.4100193],[130.6297128,31.2107908],[130.4594069,31.2513081],[130.2294369,31.2814661],[130.1158339,31.4239881],[130.3223078,31.5122239],[130.2115692,31.7560392],[130.1731375,31.9919076],[130.2837122,32.1098482],[130.3607904,32.1686099]],[[129.4468825,31.199865],[129.4468825,31.199865]],[[129.4724447,31.2115667],[129.4724447,31.2115667]],[[130.1693197,31.3641692],[130.1693197,31.3641692]],[[130.5413092,31.5006519],[130.5413092,31.5006519]],[[130.2416667,31.7269985],[130.2416667,31.7269985]],[[129.7850559,31.7910934],[129.7384237,31.6562323],[129.7761909,31.7414653],[129.7850559,31.7910934]],[[129.8395921,31.8190879],[129.8395921,31.8190879]],[[129.844465,31.8299361],[129.844465,31.8299361]],[[130.1879303,31.8582536],[130.1879303,31.8582536]],[[129.852061,31.8830219],[129.8734319,31.8205056],[129.8347687,31.8372934],[129.852061,31.8830219]],[[130.1742681,32.2294181],[130.1111336,32.1257881],[130.164486,32.212275],[130.1742681,32.2294181]],[[130.1946439,32.2444603],[130.1946439,32.2444603]],[[130.2230039,32.2547436],[130.2230039,32.2547436]],[[130.1866597,32.2689558],[130.1866597,32.2689558]],[[130.2572647,32.3064042],[130.2572647,32.3064042]]]}},{"type":"Feature","properties":{"forecastAreaCode":"770","name":"鹿児島県東部","officialBoundary":true},"geometry":{"type":"MultiLineString","coordinates":[[[131.0326186,31.3775533],[131.0326186,31.3775533]],[[131.1115159,31.4580396],[131.1115159,31.4580396]],[[131.1603008,31.4618608],[131.0171095,31.3569554],[131.0170228,31.2279606],[130.7612928,31.0554028],[130.661323,30.9944995]]]}},{"type":"Feature","properties":{"forecastAreaCode":"771","name":"種子島・屋久島地方","officialBoundary":true},"geometry":{"type":"MultiLineString","coordinates":[[[130.4979792,30.4694658],[130.4425181,30.2359122],[130.4979792,30.4694658]],[[130.1469253,30.4903019],[130.1469253,30.4903019]],[[130.9820676,30.732381],[130.9820676,30.732381]],[[130.85762,30.7657889],[130.85762,30.7657889]],[[130.3035333,30.8084222],[130.3035333,30.8084222]],[[131.0565097,30.8397556],[130.9627697,30.480085],[130.944072,30.5672142],[131.0565097,30.8397556]],[[130.4277161,30.819705],[130.4277161,30.819705]],[[129.9391947,30.8514675],[129.9391947,30.8514675]]]}},{"type":"Feature","properties":{"forecastAreaCode":"230","name":"秋田県","officialBoundary":true},"geometry":{"type":"MultiLineString","coordinates":[[[139.8695899,39.1182582],[140.0582069,39.7278054],[139.863726,39.8904794]],[[140.0128474,39.7747436],[140.0128474,39.7747436]],[[140.0330369,39.7903139],[140.0330369,39.7903139]],[[139.8521063,39.8611645],[139.8521063,39.8611645]],[[139.863726,39.8904794],[139.70161,39.9610059],[139.9780857,40.2023671],[139.9363098,40.4282038]],[[139.9705335,40.1999952],[139.9705335,40.1999952]]]}},{"type":"Feature","properties":{"forecastAreaCode":"321","name":"小笠原諸島","officialBoundary":true},"geometry":{"type":"MultiLineString","coordinates":[[[141.4621414,24.2450689],[141.4621414,24.2450689]],[[141.3234778,24.8126158],[141.3234778,24.8126158]],[[153.98408,24.2976144],[153.98408,24.2976144]],[[141.2841094,25.4487712],[141.2841094,25.4487712]],[[142.1549947,26.5645431],[142.1549947,26.5645431]],[[142.2125594,26.5644636],[142.2125594,26.5644636]],[[142.2306728,26.5756486],[142.2306728,26.5756486]],[[142.1614392,26.5884647],[142.1614392,26.5884647]],[[142.1310572,26.6106247],[142.1310572,26.6106247]],[[142.1259994,26.7142934],[142.1784752,26.6075662],[142.1259994,26.7142934]],[[142.1740103,27.0440939],[142.1740103,27.0440939]],[[142.1932891,27.1058283],[142.2029605,27.098834],[142.1932891,27.1058283]],[[142.1684178,27.1215692],[142.1684178,27.1215692]],[[142.1916667,27.1441729],[142.1916667,27.1441729]],[[142.1892161,27.1900322],[142.1892161,27.1900322]],[[142.2114083,27.5022422],[142.2114083,27.5022422]],[[142.1750667,27.6358867],[142.1750667,27.6358867]],[[142.1312467,27.6887383],[142.1312467,27.6887383]]]}},{"type":"Feature","properties":{"forecastAreaCode":"340","name":"新潟県上中下越","officialBoundary":true},"geometry":{"type":"MultiLineString","coordinates":[[[137.6349847,36.9797979],[138.2493965,37.1825125],[138.7923939,37.7441818],[139.2434934,37.9706809],[139.4502305,38.2390851],[139.5478108,38.5529477]],[[138.2551597,37.2083323],[138.2551597,37.2083323]],[[138.2744909,37.215135],[138.2744909,37.215135]],[[139.0758109,37.9740043],[139.0758109,37.9740043]],[[139.2560661,38.4909754],[139.2560661,38.4909754]]]}},{"type":"Feature","properties":{"forecastAreaCode":"201","name":"青森県太平洋沿岸","officialBoundary":true},"geometry":{"type":"MultiLineString","coordinates":[[[141.535004,40.5375319],[141.535004,40.5375319]],[[141.5495787,40.5494433],[141.5495787,40.5494433]],[[141.5350753,40.563007],[141.5350753,40.563007]],[[141.4081978,40.9242964],[141.4081978,40.9242964]],[[140.9125284,41.546407],[141.3939392,40.9367797],[141.514622,40.5524664],[141.6826668,40.450294]]]}},{"type":"Feature","properties":{"forecastAreaCode":"200","name":"青森県日本海沿岸","officialBoundary":true},"geometry":{"type":"MultiLineString","coordinates":[[[139.9363098,40.4282038],[139.9997162,40.7476749],[140.2979062,41.1139186],[140.5940151,41.2163891]],[[140.7782846,41.2101357],[140.9125284,41.546407]]]}},{"type":"Feature","properties":{"forecastAreaCode":"380","name":"静岡県","officialBoundary":true},"geometry":{"type":"MultiLineString","coordinates":[[[138.2283125,34.6197103],[138.2283125,34.6197103]],[[138.211418,34.6290628],[138.211418,34.6290628]],[[138.3375042,34.8686434],[138.3375042,34.8686434]],[[139.1115967,35.1413669],[139.1407631,34.8908831],[138.9482489,34.6738098],[138.7769386,34.7599294],[138.7563462,34.8845102],[138.8860368,35.0461808],[138.4929899,35.0299648],[138.3376516,34.8283693],[138.2272131,34.5951323],[137.4849639,34.6741051]]]}},{"type":"Feature","properties":{"forecastAreaCode":"361","name":"石川県加賀","officialBoundary":true},"geometry":{"type":"MultiLineString","coordinates":[[[136.2438603,36.2952993],[136.7242841,36.7898593]],[[136.5981582,36.6232276],[136.5981582,36.6232276]]]}},{"type":"Feature","properties":{"forecastAreaCode":"360","name":"石川県能登","officialBoundary":true},"geometry":{"type":"MultiLineString","coordinates":[[[136.7242841,36.7898593],[136.7546247,36.9371321]],[[136.7546247,36.9371321],[136.7338791,37.2794996],[137.2753021,37.5334252],[137.2662334,37.3580037],[137.0982338,37.2784861],[136.9301373,37.2062338],[136.8878491,37.0683248],[137.0516967,36.9591743]],[[137.0377493,37.1681043],[136.9019536,37.1406624],[137.0377493,37.1681043]],[[136.9219576,37.8553251],[136.9219576,37.8553251]]]}},{"type":"Feature","properties":{"forecastAreaCode":"310","name":"千葉県九十九里・外房","officialBoundary":true},"geometry":{"type":"MultiLineString","coordinates":[[[140.8519744,35.7446671],[140.6607324,35.6902903],[140.3491308,35.1801611],[139.9830765,35.0132463],[139.8869154,34.8994738]]]}},{"type":"Feature","properties":{"forecastAreaCode":"311","name":"千葉県内房","officialBoundary":true},"geometry":{"type":"MultiLineString","coordinates":[[[139.8869154,34.8994738],[139.8583325,34.9998868],[139.8156577,35.1723589],[139.7839053,35.3128375]]]}},{"type":"Feature","properties":{"forecastAreaCode":"330","name":"相模湾・三浦半島","officialBoundary":true},"geometry":{"type":"MultiLineString","coordinates":[[[139.6097712,35.1378609],[139.6097712,35.1378609]],[[139.7461584,35.2563679],[139.6048646,35.1446716],[139.4455421,35.3187824],[139.1115967,35.1413669]]]}},{"type":"Feature","properties":{"forecastAreaCode":"510","name":"大阪府","officialBoundary":true},"geometry":{"type":"MultiLineString","coordinates":[[[135.0928267,34.3120118],[135.3789913,34.5329378],[135.4523682,34.5647974],[135.4471606,34.614704],[135.4072975,34.6971008]],[[135.2333333,34.434091],[135.2333333,34.434091]],[[135.3390747,34.4692983],[135.3390747,34.4692983]],[[135.3547801,34.4887039],[135.3547801,34.4887039]],[[135.3669738,34.4923171],[135.3669738,34.4923171]],[[135.3969256,34.5319361],[135.3969256,34.5319361]],[[135.4376693,34.5556256],[135.4376693,34.5556256]],[[135.349357,34.6200696],[135.349357,34.6200696]],[[135.3896587,34.6282764],[135.3896587,34.6282764]],[[135.4169129,34.6446772],[135.4169129,34.6446772]],[[135.3796253,34.6609181],[135.3796253,34.6609181]],[[135.4027559,34.6730827],[135.4027559,34.6730827]]]}},{"type":"Feature","properties":{"forecastAreaCode":"801","name":"大東島地方","officialBoundary":true},"geometry":{"type":"MultiLineString","coordinates":[[[131.1818656,24.4723233],[131.1818656,24.4723233]],[[131.2407342,25.8724194],[131.2407342,25.8724194]],[[131.2859019,25.9610003],[131.2859019,25.9610003]]]}},{"type":"Feature","properties":{"forecastAreaCode":"750","name":"大分県瀬戸内海沿岸","officialBoundary":true},"geometry":{"type":"MultiLineString","coordinates":[[[131.7394947,33.2597281],[131.7394947,33.2597281]],[[131.1855716,33.6168494],[131.4240045,33.5930636],[131.6162118,33.6749705],[131.7014961,33.4059908],[131.5104504,33.2705422],[131.7594392,33.2402275],[131.9030556,33.2674574]],[[131.6715403,33.73879],[131.6715403,33.73879]]]}},{"type":"Feature","properties":{"forecastAreaCode":"751","name":"大分県豊後水道沿岸","officialBoundary":true},"geometry":{"type":"MultiLineString","coordinates":[[[131.9270891,32.7269685],[131.9270891,32.7269685]],[[131.9085677,32.7808409],[131.9085677,32.7808409]],[[132.075,32.9774782],[132.075,32.9774782]],[[131.9352817,33.0160576],[131.9352817,33.0160576]],[[132.0109811,33.1114796],[132.0109811,33.1114796]],[[131.9794341,33.1611533],[131.9794341,33.1611533]],[[131.9922139,33.1713168],[131.9922139,33.1713168]],[[131.9030556,33.2674574],[131.9155274,33.1250607],[131.9406887,33.09688],[131.9010711,33.0101519],[132.0032944,32.9588814],[131.9768136,32.922692],[131.9632,32.8382998],[131.9252723,32.8010853],[131.8857072,32.7458681]]]}},{"type":"Feature","properties":{"forecastAreaCode":"522","name":"淡路島南部","officialBoundary":true},"geometry":{"type":"MultiLineString","coordinates":[[[134.821445,34.1795406],[134.821445,34.1795406]],[[134.9478001,34.2980275],[134.9478001,34.2980275]],[[134.8947786,34.3989883],[134.6579198,34.2411301],[134.7406148,34.3524513]]]}},{"type":"Feature","properties":{"forecastAreaCode":"730","name":"長崎県西方","officialBoundary":true},"geometry":{"type":"MultiLineString","coordinates":[[[128.3565631,32.0081253],[128.3565631,32.0081253]],[[128.3940088,32.0542679],[128.3940088,32.0542679]],[[129.7866018,32.5707787],[129.7866018,32.5707787]],[[130.2079154,32.6044612],[130.2064356,32.7274928],[129.9257555,32.7078343],[129.8170261,32.654665],[129.845582,32.7201349],[129.7771085,32.8189757],[129.6617981,33.0003778],[129.7138657,33.0711099],[129.7641292,33.0218933],[129.7835129,32.9079716],[129.8808202,32.8822187],[129.9323716,33.02661],[129.7314183,33.1241065],[129.6982782,33.141794],[129.6146745,33.2243213],[129.6225886,33.3099057],[129.6681916,33.3658772],[129.7908143,33.3403991]],[[128.9055289,32.5712492],[128.9055289,32.5712492]],[[128.7180464,32.5829194],[128.7180464,32.5829194]],[[128.9255442,32.5987186],[128.9255442,32.5987186]],[[128.8315039,32.6056214],[128.8315039,32.6056214]],[[129.7513039,32.6670956],[129.7513039,32.6670956]],[[129.7808386,32.7025217],[129.7808386,32.7025217]],[[129.7612965,32.7152569],[129.7612965,32.7152569]],[[128.6346197,32.6798175],[128.6346197,32.6798175]],[[128.898245,32.7118458],[128.898245,32.7118458]],[[129.9654488,32.7621391],[129.9654488,32.7621391]],[[128.8628817,32.7313708],[128.8628817,32.7313708]],[[128.8796328,32.7507886],[128.8796328,32.7507886]],[[128.6060736,32.7404856],[128.6060736,32.7404856]],[[129.7569358,32.8130261],[129.7569358,32.8130261]],[[128.9578922,32.7770297],[128.9578922,32.7770297]],[[128.9929481,32.7909961],[128.9929481,32.7909961]],[[128.8088117,32.7981011],[128.8392207,32.7135338],[128.7937456,32.5987983],[128.6125178,32.6210772],[128.6497719,32.657315],[128.6509753,32.7754581],[128.7577667,32.7690661],[128.8088117,32.7981011]],[[128.9342719,32.8076556],[128.9342719,32.8076556]],[[128.8639691,32.8447611],[128.8639691,32.8447611]],[[129.0379236,32.8537994],[129.0379236,32.8537994]],[[129.6021189,32.8911756],[129.6021189,32.8911756]],[[129.0346103,32.8828225],[129.0346103,32.8828225]],[[128.9415753,32.884675],[128.9142744,32.8207867],[128.9415753,32.884675]],[[129.9018565,32.9290267],[129.9018565,32.9290267]],[[128.9171119,32.8969139],[128.9171119,32.8969139]],[[129.5985222,32.9476892],[129.5985222,32.9476892]],[[128.9899731,32.9329967],[129.0013373,32.9025415],[128.9899731,32.9329967]],[[128.9630803,32.9324831],[128.9630803,32.9324831]],[[128.9900586,32.9656953],[128.9900586,32.9656953]],[[129.6502281,33.0095953],[129.6502281,33.0095953]],[[129.5449456,33.0083931],[129.5449456,33.0083931]],[[129.0248378,32.9935294],[129.0248378,32.9935294]],[[129.3531306,33.0210333],[129.3531306,33.0210333]],[[129.5618742,33.0304533],[129.5618742,33.0304533]],[[129.1889336,33.0199508],[129.1889336,33.0199508]],[[129.2473242,33.0231989],[129.2473242,33.0231989]],[[129.0319017,33.0148997],[129.0319017,33.0148997]],[[129.6373873,33.0448647],[129.6373873,33.0448647]],[[129.6087778,33.0652981],[129.6087778,33.0652981]],[[129.7808396,33.0768719],[129.7808396,33.0768719]],[[129.7682324,33.1434433],[129.7420345,33.0617516],[129.7682324,33.1434433]],[[129.6749511,33.1432651],[129.6749511,33.1432651]],[[129.543887,33.1517353],[129.543887,33.1517353]],[[129.1130019,33.1642494],[129.1832992,33.0021633],[129.0811736,32.8958482],[129.0576506,32.8782564],[129.0355258,32.9458214],[129.0476803,32.9762503],[129.0742283,33.0565175],[129.1130019,33.1642494]],[[129.5907782,33.1938611],[129.5907782,33.1938611]],[[129.6000793,33.1998128],[129.6000793,33.1998128]],[[129.0242981,33.175497],[129.0242981,33.175497]],[[128.9024297,33.1741064],[128.9024297,33.1741064]],[[129.5829743,33.2079041],[129.5829743,33.2079041]],[[128.9869972,33.1936203],[128.9869972,33.1936203]],[[129.1227642,33.2137158],[129.1227642,33.2137158]],[[129.0235867,33.2131103],[129.0235867,33.2131103]],[[129.0569158,33.2200061],[129.0569158,33.2200061]],[[129.0668903,33.2280908],[129.0668903,33.2280908]],[[129.0665514,33.2628119],[129.0665514,33.2628119]],[[129.1286479,33.3022431],[129.1286479,33.3022431]],[[129.7969678,33.4146411],[129.7969678,33.4146411]],[[129.5545456,33.4095442],[129.5100114,33.2876547],[129.3999162,33.1800309],[129.4325275,33.3143858],[129.5545456,33.4095442]],[[129.6871036,33.4230994],[129.6871036,33.4230994]],[[129.4345878,33.4406889],[129.4345878,33.4406889]],[[129.5305783,33.4543689],[129.5305783,33.4543689]],[[129.7189983,33.4637833],[129.7189983,33.4637833]],[[129.7549472,33.4704497],[129.7549472,33.4704497]],[[129.556445,33.5107614],[129.4966228,33.4718131],[129.556445,33.5107614]]]}},{"type":"Feature","properties":{"forecastAreaCode":"540","name":"鳥取県","officialBoundary":true},"geometry":{"type":"MultiLineString","coordinates":[[[133.2747869,35.5487173],[133.2747869,35.5487173]],[[133.2446212,35.549112],[133.780826,35.5005896],[134.3351066,35.5923824],[134.3699444,35.6145847]]]}},{"type":"Feature","properties":{"forecastAreaCode":"550","name":"島根県出雲・石見","officialBoundary":true},"geometry":{"type":"MultiLineString","coordinates":[[[131.6906217,34.681045],[132.0083542,34.8684669],[132.3890044,35.1314022],[132.6291336,35.4351556],[132.9680144,35.5434742],[133.1404497,35.5809825],[133.3268136,35.5678578],[133.2446212,35.549112]]]}},{"type":"Feature","properties":{"forecastAreaCode":"312","name":"東京湾内湾","officialBoundary":true},"geometry":{"type":"MultiLineString","coordinates":[[[139.9720681,35.6709007],[139.9719938,35.6708967]],[[139.7765898,35.6361133],[139.7765898,35.6361133]],[[139.7580072,35.6337979],[139.7580072,35.6337979]],[[139.8401158,35.6311601],[139.8401158,35.6311601]],[[139.8208213,35.6288277],[139.8208213,35.6288277]],[[139.755006,35.6177078],[139.755006,35.6177078]],[[139.7976276,35.6173797],[139.7976276,35.6173797]],[[139.8100913,35.6135466],[139.8100913,35.6135466]],[[139.8266364,35.5975965],[139.8266364,35.5975965]],[[140.0916702,35.587856],[140.0916702,35.587856]],[[139.7642289,35.575],[139.7642289,35.575]],[[139.8166667,35.5332591],[139.8166667,35.5332591]],[[139.7569598,35.5266589],[139.7569598,35.5266589]],[[139.7712031,35.5062183],[139.7712031,35.5062183]],[[139.7831354,35.4948624],[139.7831354,35.4948624]],[[139.7340577,35.4947862],[139.7340577,35.4947862]],[[139.6457004,35.474711],[139.6457004,35.474711]],[[139.6947494,35.4652813],[139.6947494,35.4652813]],[[139.6921381,35.4100813],[139.6921381,35.4100813]],[[139.7461584,35.2563679],[139.658273,35.3785439],[139.6810958,35.4417356],[139.6928008,35.4814064],[139.7378636,35.5147134],[139.7647596,35.6563834],[139.8344804,35.6440676],[139.9318228,35.6747503],[140.0998478,35.6047377],[140.0960887,35.5354016],[140.023556,35.4681053],[139.9510923,35.4561382],[139.8591648,35.3480538],[139.7839053,35.3128375]],[[139.6518424,35.3074184],[139.6518424,35.3074184]]]}},{"type":"Feature","properties":{"forecastAreaCode":"580","name":"徳島県","officialBoundary":true},"geometry":{"type":"MultiLineString","coordinates":[[[134.3141675,33.5403133],[134.3143715,33.5401128]],[[134.3177775,33.5489497],[134.3177775,33.5489497]],[[134.4858683,33.6453719],[134.4858683,33.6453719]],[[134.7402913,33.8528918],[134.7402913,33.8528918]],[[134.8196936,33.8577125],[134.8196936,33.8577125]],[[134.6567344,33.8675119],[134.6567344,33.8675119]],[[134.6797626,33.8696799],[134.6797626,33.8696799]],[[134.6,34.0384264],[134.6,34.0384264]],[[134.6,34.0683076],[134.6,34.0683076]],[[134.4402067,34.2078539],[134.6233959,34.128164],[134.6391901,34.0078029],[134.7202621,33.8450267],[134.5451474,33.7375948],[134.3178356,33.5818256],[134.3056553,33.5486175]],[[134.6436602,34.2395376],[134.6436602,34.2395376]],[[134.6072361,34.2516493],[134.6072361,34.2516493]]]}},{"type":"Feature","properties":{"forecastAreaCode":"350","name":"富山県","officialBoundary":true},"geometry":{"type":"MultiLineString","coordinates":[[[137.0753191,36.802415],[137.0753191,36.802415]],[[137.0516967,36.9591743],[137.1812382,36.7576445],[137.6349847,36.9797979]]]}},{"type":"Feature","properties":{"forecastAreaCode":"370","name":"福井県","officialBoundary":true},"geometry":{"type":"MultiLineString","coordinates":[[[135.4865996,35.5579363],[135.6608637,35.5477447],[135.7006827,35.4945965],[135.757061,35.5432663],[135.831835,35.6031208],[135.9787557,35.6279428],[136.0443465,35.7054562],[136.0856869,35.7392265],[136.0277821,36.0958448],[136.2438603,36.2952993]],[[135.486861,35.558048],[135.4866705,35.5579663]]]}},{"type":"Feature","properties":{"forecastAreaCode":"710","name":"福岡県瀬戸内海沿岸","officialBoundary":true},"geometry":{"type":"MultiLineString","coordinates":[[[131.0130549,33.7965006],[131.0130549,33.7965006]],[[131.0354779,33.8567886],[131.0354779,33.8567886]],[[130.9150668,33.8957768],[130.9821116,33.8670609],[131.0117521,33.8195608],[131.0190522,33.7468771],[131.1855716,33.6168494]]]}},{"type":"Feature","properties":{"forecastAreaCode":"711","name":"福岡県日本海沿岸","officialBoundary":true},"geometry":{"type":"MultiLineString","coordinates":[[[130.0390263,33.4700145],[130.1358747,33.5667773],[130.2369509,33.6491908],[130.3932116,33.5973022],[130.4344495,33.6621621],[130.4477482,33.7862937],[130.681562,33.937166],[130.74257,33.8736215],[130.8482049,33.9054546],[130.9150668,33.8957768]],[[130.0476011,33.5757755],[130.0476011,33.5757755]],[[130.3819181,33.6180155],[130.3819181,33.6180155]],[[130.3975356,33.6230397],[130.3975356,33.6230397]],[[130.3017829,33.6383459],[130.3017829,33.6383459]],[[130.4210182,33.6753507],[130.4210182,33.6753507]],[[130.2995451,33.6895016],[130.2995451,33.6895016]],[[130.2289913,33.6944963],[130.2289913,33.6944963]],[[130.3635492,33.7670617],[130.3635492,33.7670617]],[[130.0363026,33.8741154],[130.0363026,33.8741154]],[[130.6590541,33.9012201],[130.6590541,33.9012201]],[[130.4889999,33.9134918],[130.4889999,33.9134918]],[[130.4394961,33.9147683],[130.4394961,33.9147683]],[[130.8088884,33.9487299],[130.8088884,33.9487299]],[[130.7596796,33.949911],[130.7596796,33.949911]],[[130.8523722,33.9714047],[130.8523722,33.9714047]],[[130.8132511,34.0011425],[130.8132511,34.0011425]],[[130.7254792,34.0190642],[130.7254792,34.0190642]],[[130.11234,34.2493097],[130.11234,34.2493097]]]}},{"type":"Feature","properties":{"forecastAreaCode":"250","name":"福島県","officialBoundary":true},"geometry":{"type":"MultiLineString","coordinates":[[[140.9,36.9155193],[140.9,36.9155193]],[[140.9100284,36.9387795],[140.9100284,36.9387795]],[[140.9311708,37.8961974],[140.9765441,37.8372634],[141.0254439,37.3248014],[140.9777655,37.0709979],[140.7934964,36.8594561]]]}},{"type":"Feature","properties":{"forecastAreaCode":"521","name":"兵庫県瀬戸内海沿岸","officialBoundary":true},"geometry":{"type":"MultiLineString","coordinates":[[[134.7406148,34.3524513],[134.988784,34.5116562],[134.8947786,34.3989883]],[[134.4840147,34.5999328],[134.4840147,34.5999328]],[[135.2365492,34.6408089],[135.2365492,34.6408089]],[[135.2801922,34.6513521],[135.2801922,34.6513521]],[[135.2008802,34.6540683],[135.2008802,34.6540683]],[[134.5155906,34.6595861],[134.5155906,34.6595861]],[[134.9446804,34.6617374],[134.7595327,34.7635603],[134.6288292,34.7638605],[134.4658294,34.8090576],[134.3639476,34.7394618],[134.3217294,34.7219461]],[[135.2542316,34.6691794],[135.2542316,34.6691794]],[[134.4873294,34.6716051],[134.4873294,34.6716051]],[[135.3596811,34.6722987],[135.3596811,34.6722987]],[[134.5733788,34.6766812],[134.5733788,34.6766812]],[[135.2199988,34.6827792],[135.2199988,34.6827792]],[[135.2282424,34.6844282],[135.2282424,34.6844282]],[[134.5355886,34.6865522],[134.5355886,34.6865522]],[[135.2813989,34.6973003],[135.2813989,34.6973003]],[[135.4072975,34.6971008],[135.1833579,34.6495014],[134.9446804,34.6617374]],[[134.8715456,34.7007768],[134.8715456,34.7007768]],[[134.8556232,34.7102504],[134.8556232,34.7102504]],[[135.3039482,34.7099848],[135.3039482,34.7099848]],[[135.3221052,34.7120757],[135.3221052,34.7120757]],[[135.3432618,34.7153669],[135.3432618,34.7153669]],[[135.330308,34.7221068],[135.330308,34.7221068]],[[134.6633703,34.7654392],[134.6633703,34.7654392]],[[134.7019483,34.7707978],[134.7019483,34.7707978]],[[134.6055477,34.7722117],[134.6055477,34.7722117]]]}},{"type":"Feature","properties":{"forecastAreaCode":"520","name":"兵庫県北部","officialBoundary":true},"geometry":{"type":"MultiLineString","coordinates":[[[134.3699444,35.6145847],[134.6561341,35.6652305],[134.7996015,35.6702725],[134.8623667,35.6578888]],[[134.8624451,35.6578671],[134.8624451,35.6578669]],[[134.8624451,35.6578671],[134.8675047,35.6582324]],[[134.8623667,35.6578888],[134.8623666,35.6578887]],[[134.8623667,35.6578888],[134.8624451,35.6578671]]]}},{"type":"Feature","properties":{"forecastAreaCode":"102","name":"北海道太平洋沿岸西部","officialBoundary":true},"geometry":{"type":"MultiLineString","coordinates":[[[140.9171027,42.3537506],[140.9171027,42.3537506]],[[141.9668643,42.5284676],[141.6954058,42.6573963],[140.930873,42.3404566],[140.7862167,42.5178865],[140.3096411,42.4082031],[140.7740544,42.0851672],[141.1831518,41.8178978],[140.7374194,41.7682264],[140.6189217,41.7984847],[140.1974317,41.3978092]],[[141.775,42.5822075],[141.775,42.5822075]],[[141.767659,42.5890103],[141.767659,42.5890103]]]}},{"type":"Feature","properties":{"forecastAreaCode":"101","name":"北海道太平洋沿岸中部","officialBoundary":true},"geometry":{"type":"MultiLineString","coordinates":[[[143.8693461,42.8422525],[143.3090981,42.2577453],[143.13426,42.0278383],[142.5851575,42.2431567],[141.9668643,42.5284676]]]}},{"type":"Feature","properties":{"forecastAreaCode":"111","name":"北海道日本海沿岸南部","officialBoundary":true},"geometry":{"type":"MultiLineString","coordinates":[[[139.8036969,41.3657064],[139.8036969,41.3657064]],[[140.1974317,41.3978092],[140.0714374,41.8070886],[140.0235881,42.1145669],[139.8467031,42.5281903],[140.2381211,42.7952493],[140.5068275,42.9857199],[140.32432,43.2219353],[140.4620456,43.3722772]],[[139.3408307,41.5251049],[139.3408307,41.5251049]],[[139.5596995,42.2494187],[139.4354736,42.2159014],[139.5596995,42.2494187]]]}},{"type":"Feature","properties":{"forecastAreaCode":"110","name":"北海道日本海沿岸北部","officialBoundary":true},"geometry":{"type":"MultiLineString","coordinates":[[[141.2894498,43.2287226],[141.2894498,43.2287226]],[[140.4620456,43.3722772],[140.7903774,43.1948316],[141.3007352,43.2212735],[141.3875258,43.8067019],[141.6330158,43.9743699],[141.7911314,44.6195117],[141.6343201,45.4052716],[141.9366609,45.5229495]],[[141.6234264,43.9633016],[141.6234264,43.9633016]],[[141.3266951,44.4423937],[141.3266951,44.4423937]],[[141.4257422,44.4465672],[141.4257422,44.4465672]],[[141.1991922,45.2588214],[141.1660053,45.1371831],[141.1991922,45.2588214]],[[141.6980677,45.4119494],[141.6980677,45.4119494]],[[141.704341,45.4185669],[141.704341,45.4185669]],[[140.9673467,45.4642186],[140.9829083,45.3803753],[140.9673467,45.4642186]]]}},{"type":"Feature","properties":{"forecastAreaCode":"202","name":"陸奥湾","officialBoundary":true},"geometry":{"type":"MultiLineString","coordinates":[[[140.7265245,40.8458187],[140.7265245,40.8458187]],[[140.5940151,41.2163891],[140.8379078,40.953305],[141.1488418,40.879267],[141.1332303,41.2438627],[140.7641891,41.1456459],[140.7782846,41.2101357]]]}},{"type":"Feature","properties":{"forecastAreaCode":"530","name":"和歌山県","officialBoundary":true},"geometry":{"type":"MultiLineString","coordinates":[[[135.8117432,33.4813616],[135.8117432,33.4813616]],[[136.01189,33.7233007],[135.9235394,33.5764179],[135.7532494,33.4368545],[135.4879326,33.5506134],[135.4001574,33.7207531],[135.141835,33.8848603],[135.0857016,33.968714],[135.1258523,34.136659],[135.1657188,34.1871667],[135.0614386,34.2634342],[135.0928267,34.3120118]],[[135.1432686,33.8633212],[135.1432686,33.8633212]],[[135.1028591,34.1181276],[135.1028591,34.1181276]],[[135.1365751,34.2029548],[135.1365751,34.2029548]],[[135.0207581,34.293089],[135.0207581,34.293089]],[[135.0552772,34.2991924],[135.0552772,34.2991924]]]}},{"type":"Feature","properties":{"forecastAreaCode":"0","name":"帰属未定1","officialBoundary":true},"geometry":{"type":"MultiLineString","coordinates":[[[131.9564722,33.2792962],[131.9564722,33.2792962]]]}},{"type":"Feature","properties":{"forecastAreaCode":"100","name":"北海道太平洋沿岸東部","officialBoundary":true},"geometry":{"type":"MultiLineString","coordinates":[[[144.8744753,42.9611356],[144.8744753,42.9611356]],[[144.3080135,42.9802704],[144.3080135,42.9802704]],[[144.3264729,42.9905031],[144.3264729,42.9905031]],[[145.1095222,43.0533786],[145.1095222,43.0533786]],[[145.5975625,43.2216694],[145.5975625,43.2216694]],[[146.0166175,43.3783859],[146.0166175,43.3783859]],[[146.1671053,43.4230305],[146.1671053,43.4230305]],[[146.0986467,43.4481193],[146.0986467,43.4481193]],[[145.8877424,43.4622243],[145.8877424,43.4622243]],[[146.1349895,43.548904],[146.1349895,43.548904]],[[145.3305936,43.5678335],[145.3305936,43.5678335]],[[145.2495661,43.5735853],[145.2495661,43.5735853]],[[146.3121605,43.6514694],[146.3121605,43.6514694]],[[146.69149,43.7332232],[146.69149,43.7332232]],[[146.8018901,43.7596771],[146.8018901,43.7596771]],[[146.8319875,43.8869304],[146.7699021,43.7666517],[146.6075181,43.7531635],[146.7754459,43.8765226],[146.8319875,43.8869304]],[[145.3376442,44.3413125],[145.0610831,43.8059169],[145.3353736,43.5643753],[145.2690083,43.6087157],[145.6523525,43.3918964],[145.6219624,43.316596],[145.4958931,43.1587078],[145.1140533,43.0875578],[144.8323006,43.0142221],[144.7741072,42.93288],[143.8693461,42.8422525]],[[146.1667015,44.5174986],[146.4315008,44.3759132],[145.9836206,44.1707179],[145.7811059,43.9319449],[145.4440984,43.8527215],[145.8374892,44.1823761],[146.1667015,44.5174986]],[[148.752635,45.5569332],[148.7767561,45.3226426],[148.0996454,45.1126498],[147.6147644,44.9566287],[147.3349906,44.7142069],[146.9523195,44.5497842],[147.0965009,44.6385557],[147.2385853,44.8064603],[147.5048215,45.1177087],[147.8423555,45.2070179],[147.9647269,45.4202362],[148.3320232,45.2863263],[148.627799,45.5002278],[148.752635,45.5569332]]]}},{"type":"Feature","properties":{"forecastAreaCode":"500","name":"京都府","officialBoundary":true},"geometry":{"type":"MultiLineString","coordinates":[[[135.4866705,35.5579663],[135.486861,35.558048]],[[135.4789117,35.6051539],[135.4789117,35.6051539]],[[134.8675047,35.6582324],[135.2746006,35.7427408],[135.1924874,35.5401918],[135.3167128,35.4511549],[135.4267866,35.5665132],[135.4865996,35.5579363]],[[135.4252222,35.6874158],[135.4252222,35.6874158]]]}},{"type":"Feature","properties":{"forecastAreaCode":"610","name":"高知県","officialBoundary":true},"geometry":{"type":"MultiLineString","coordinates":[[[132.48982,32.7435483],[132.48982,32.7435483]],[[132.5456422,32.7551481],[132.5456422,32.7551481]],[[132.6293583,32.7724586],[132.6293583,32.7724586]],[[132.4874703,32.8076253],[132.4874703,32.8076253]],[[133.4486083,33.4482643],[133.4486083,33.4482643]],[[134.3143715,33.5401128],[134.3141675,33.5403133]],[[134.3056553,33.5486175],[133.9577681,33.4418308],[133.5615397,33.5316758],[133.3504286,33.4158608],[133.4419459,33.4402171],[133.299395,33.3739465],[133.2600853,33.3134119],[133.223005,33.1532967],[133.0082847,33.0114151],[133.002705,32.7871458],[132.8794564,32.7896669],[132.6446806,32.7867653],[132.7038728,32.8961372],[132.6555329,32.9252013]]]}},{"type":"Feature","properties":{"forecastAreaCode":"712","name":"有明・八代海","officialBoundary":true},"geometry":{"type":"MultiLineString","coordinates":[[[130.3607904,32.1686099],[130.4487605,32.2876551],[130.4886166,32.3663852],[130.5438369,32.5382377],[130.4617944,32.6343075],[130.4625954,32.9014437],[130.4253828,33.0528524],[130.1917272,33.1404196],[130.2008139,32.9525854],[130.3765464,32.7399798],[130.2079154,32.6044612]],[[130.3029983,32.3364683],[130.3029983,32.3364683]],[[130.355293,32.352133],[130.355293,32.352133]],[[130.3146089,32.3680253],[130.3146089,32.3680253]],[[130.3506606,32.371861],[130.3506606,32.371861]],[[130.2357475,32.3806303],[130.2357475,32.3806303]],[[130.3244685,32.3820879],[130.3244685,32.3820879]],[[130.3443409,32.3923811],[130.3443409,32.3923811]],[[130.4,32.3941784],[130.4,32.3941784]],[[130.4150839,32.3994296],[130.4150839,32.3994296]],[[130.1972464,32.5035101],[130.1726936,32.3104828],[130.1539961,32.3218385]],[[130.4606659,32.5302922],[130.3293419,32.3979133],[130.3197796,32.5192179],[130.4606659,32.5302922]],[[130.4036437,32.5440685],[130.4036437,32.5440685]],[[130.4111959,32.5476431],[130.4111959,32.5476431]],[[130.3897308,32.5867961],[130.3897308,32.5867961]],[[130.4734953,32.5878075],[130.4734953,32.5878075]],[[130.4934672,32.6097308],[130.4934672,32.6097308]],[[130.4431459,32.6258658],[130.3943199,32.5907139],[130.4431459,32.6258658]],[[130.575,32.7561566],[130.575,32.7561566]],[[130.5929728,32.7686737],[130.5929728,32.7686737]],[[130.606653,32.7905687],[130.606653,32.7905687]],[[130.2239758,32.9582728],[130.2239758,32.9582728]]]}}]}